OBJECT_NAME,OBJECT_ID,EPOCH,MEAN_MOTION,ECCENTRICITY,INCLINATION,RA_OF_ASC_NODE,ARG_OF_PERICENTER,MEAN_ANOMALY,EPHEMERIS_TYPE,CLASSIFICATION_TYPE,NORAD_CAT_ID,ELEMENT_SET_NO,REV_AT_EPOCH,BSTAR,MEAN_MOTION_DOT,MEAN_MOTION_DDOT
PERSEUS-M1,2014-033AF,2026-06-14T02:13:06.307104,14.95623571,.0010531,97.9644,109.1736,313.2965,46.7376,0,U,40039,999,65017,.11016537E-3,.1164E-4,0
POLYITAN-1,2014-033AJ,2026-06-14T07:28:06.958560,15.33167050,.00084513,98.0938,191.3000,149.3870,210.7865,0,U,40042,999,65315,.57759925E-3,.18464E-3,0
TIGRISAT,2014-033AK,2026-06-13T22:46:57.162144,14.85151636,.00506932,97.7824,315.0351,85.5733,275.1271,0,U,40043,999,64514,.2547612E-3,.2176E-4,0
AEROCUBE 6A,2014-033AM,2026-06-13T22:49:34.746240,14.98078813,.00391552,97.7229,331.9340,28.9778,331.3607,0,U,40045,999,64613,.54027826E-3,.6435E-4,0
AEROCUBE 6B,2014-033AN,2026-06-14T05:21:49.594752,14.99545352,.00385759,97.7233,331.9873,19.4866,340.7822,0,U,40046,999,64631,.45664008E-3,.5639E-4,0
CANX-4,2014-034C,2026-06-14T05:55:59.752704,14.81259848,.00133692,98.3126,40.4523,26.1606,334.0278,0,U,40055,999,64409,.1173452E-3,.858E-5,0
CANX-5,2014-034D,2026-06-14T04:16:31.019520,14.81276950,.00133855,98.3128,40.4242,26.4954,333.6939,0,U,40056,999,63489,.11878518E-3,.87E-5,0
UKUBE-1,2014-037F,2026-06-14T06:13:27.978240,15.13513817,.00025189,98.4229,168.2236,134.6803,225.4631,0,U,40074,999,64811,.4584241E-3,.8136E-4,0
BRITE-PL2 (HEWELIUSZ),2014-049B,2026-06-14T07:02:41.072352,14.94584843,.00151952,97.9095,277.2712,117.0513,243.2260,0,U,40119,999,64101,.13523061E-3,.1406E-4,0
AEROCUBE 5C,2015-058B,2026-06-13T16:25:02.558496,14.91439290,.01306064,64.7679,273.4878,64.6416,296.8154,0,U,40965,999,36513,.21937275E-3,.241E-4,0
AEROCUBE 7,2015-058C,2026-06-13T14:57:52.807968,14.95704832,.01203147,64.7630,255.9778,63.1063,298.2287,0,U,40966,999,36542,.26786599E-3,.3277E-4,0
FOX-1A (AO-85),2015-058D,2026-06-14T01:34:52.871808,14.90956726,.01302584,64.7761,288.6834,57.8004,303.5661,0,U,40967,999,11310,.22792156E-3,.2476E-4,0
SINOD-D 1,2015-058E,2026-06-14T00:04:22.087488,14.95888248,.01188419,64.7761,268.8837,54.3509,306.8602,0,U,40968,999,11618,.28236074E-3,.347E-4,0
SNAP-3 ALICE,2015-058G,2026-06-14T06:55:27.503328,15.59474399,.00288378,64.7497,113.9459,14.5147,345.6819,0,U,40970,999,11643,.13736332E-2,.113024E-2,0
LMRST-SAT,2015-058H,2026-06-13T14:49:41.731104,14.90575803,.0131881,64.7766,286.4068,60.0183,301.3942,0,U,40971,999,11302,.21956E-3,.2363E-4,0
SNAP-3 EDDIE,2015-058J,2026-06-14T03:39:58.967712,15.60680536,.0028488,64.7423,105.1621,18.6640,341.5544,0,U,40972,999,11855,.15035182E-2,.129815E-2,0
PROPCUBE 3,2015-058K,2026-06-13T15:53:32.980992,14.94240218,.01238662,64.7689,263.5489,61.3006,300.0491,0,U,40973,999,11427,.24855117E-3,.293E-4,0
BISONSAT,2015-058L,2026-06-14T07:53:29.489856,15.16133566,.00787563,64.7579,182.8861,48.4412,312.3429,0,U,40974,999,11518,.53668437E-3,.11057E-3,0
SNAP-3 JIMI,2015-058M,2026-06-14T06:14:36.812256,15.02276292,.01060104,64.7645,229.0336,56.5656,304.5545,0,U,40975,999,11378,.29473638E-3,.4219E-4,0
PROPCUBE 1 (FLORA),2015-058N,2026-06-14T02:33:41.224896,14.89209948,.01305985,64.7755,304.7827,62.1260,299.3009,0,U,40976,999,11580,.234249E-3,.2431E-4,0
SINOD-D 3,2015-058P,2026-06-14T00:40:18.744672,14.93998756,.01191004,64.7736,285.6837,59.3834,301.8960,0,U,40977,999,11428,.28556515E-3,.3333E-4,0
HORYU-4,2016-012D,2026-06-14T04:23:58.368480,15.93563943,.00046123,30.9846,101.0543,251.9494,108.0665,0,U,41340,999,57033,.1134375E-2,.430944E-2,.66472476E-4
RAVAN,2016-067B,2026-06-14T05:04:28.199136,15.54424943,.00048303,97.9896,54.4417,40.1746,319.9862,0,U,41849,999,52723,.7683489E-3,.50604E-3,0
CELTEE 1,2016-067C,2026-06-14T02:41:49.848864,15.19656415,.00007519,98.0677,31.4701,121.1330,238.9976,0,U,41850,999,52541,.28186833E-3,.5934E-4,0
OPTICUBE 04,2016-067D,2026-06-13T13:35:24.141696,15.09645471,.0016779,98.0701,16.6614,126.7802,233.4968,0,U,41851,999,52462,.12025E-3,.1869E-4,0
AEROCUBE 8D,2016-067E,2026-06-14T04:50:26.675232,15.24361450,.00045408,98.0687,35.1463,130.5183,229.6448,0,U,41852,999,52561,.31002241E-3,.7512E-4,0
AEROCUBE 8C,2016-067F,2026-06-14T03:52:37.182144,15.24609042,.0006722,98.0560,32.3349,77.4173,282.7815,0,U,41853,999,52560,.31686101E-3,.774E-4,0
CORVUS BC2,2017-042X,2026-06-14T04:55:54.461280,15.06276912,.00141952,97.4052,326.6713,119.8505,240.4136,0,U,42846,999,48661,.26570684E-3,.385E-4,0
CORVUS BC1,2017-042Y,2026-06-14T06:24:17.048736,15.06448054,.00132078,97.4086,327.5424,98.1330,262.1397,0,U,42847,999,48665,.26501292E-3,.3857E-4,0
MAKERSAT 0,2017-073D,2026-06-13T21:56:29.924736,15.31998671,.0105274,97.4636,47.4083,284.8512,74.1088,0,U,43016,999,46596,.51447E-3,.18871E-3,0
